1 40894U 15047A   25332.21868602  .00001375  00000+0  17690-3 0  9991
2 40894  97.6563  11.8005 0029078  79.8991 280.5501 14.82365871550418
